OBJECT_NAME,OBJECT_ID,EPOCH,MEAN_MOTION,ECCENTRICITY,INCLINATION,RA_OF_ASC_NODE,ARG_OF_PERICENTER,MEAN_ANOMALY,EPHEMERIS_TYPE,CLASSIFICATION_TYPE,NORAD_CAT_ID,ELEMENT_SET_NO,REV_AT_EPOCH,BSTAR,MEAN_MOTION_DOT,MEAN_MOTION_DDOT
GEOSCAN 1 (RS92S1),2025-155E,2026-03-01T12:01:17.942304,15.28118247,.0007415,97.4441,28.9616,181.5283,178.5935,0,U,64880,999,6431,.57369E-3,.15681E-3,0
239ALFEROV (RS61S),2025-155F,2026-03-01T11:15:32.143392,15.29562704,.0007065,97.4445,29.1845,179.0433,181.0822,0,U,64881,999,6432,.68388E-3,.19562E-3,0
GEOSCAN 2 (RS92S2),2025-155Q,2026-03-01T10:47:08.360448,15.28420443,.0007369,97.4439,29.0171,167.0857,193.0572,0,U,64890,999,6431,.55304E-3,.15253E-3,0
GEOSCAN 5 (RS92S5),2025-155R,2026-03-01T11:32:44.639808,15.29897094,.0005671,97.4438,29.2913,181.7197,178.4025,0,U,64891,999,6433,.66566E-3,.1923E-3,0
GEOSCAN 4 (RS92S4),2025-155S,2026-03-01T11:22:34.139136,15.29998988,.0005677,97.4441,29.3071,182.1884,177.9333,0,U,64892,999,6433,.68205E-3,.19768E-3,0
GEOSCAN 3 (RS92S3),2025-155T,2026-03-01T11:00:44.624448,15.31247723,.0005303,97.4435,29.4671,181.3576,178.7652,0,U,64893,999,6434,.79328E-3,.23923E-3,0
INNOSAT 3 (RS92S0),2025-155U,2026-03-01T10:51:43.985952,15.35937930,.0004752,97.4406,30.0525,169.8949,190.2391,0,U,64894,999,6438,.12073E-2,.42348E-3,0