GEOSCAN 1 (RS92S1)      
1 64880U 25155E   26060.50090211  .00015681  00000+0  57369-3 0  9999
2 64880  97.4441  28.9616 0007415 181.5283 178.5935 15.28118247 64315
239ALFEROV (RS61S)      
1 64881U 25155F   26060.46912203  .00019562  00000+0  68388-3 0  9994
2 64881  97.4445  29.1845 0007065 179.0433 181.0822 15.29562704 64324
GEOSCAN 2 (RS92S2)      
1 64890U 25155Q   26060.44940232  .00015253  00000+0  55304-3 0  9992
2 64890  97.4439  29.0171 0007369 167.0857 193.0572 15.28420443 64318
GEOSCAN 5 (RS92S5)      
1 64891U 25155R   26060.48107222  .00019230  00000+0  66566-3 0  9992
2 64891  97.4438  29.2913 0005671 181.7197 178.4025 15.29897094 64331
GEOSCAN 4 (RS92S4)      
1 64892U 25155S   26060.47400624  .00019768  00000+0  68205-3 0  9992
2 64892  97.4441  29.3071 0005677 182.1884 177.9333 15.29998988 64336
GEOSCAN 3 (RS92S3)      
1 64893U 25155T   26060.45884982  .00023923  00000+0  79328-3 0  9990
2 64893  97.4435  29.4671 0005303 181.3576 178.7652 15.31247723 64343
INNOSAT 3 (RS92S0)      
1 64894U 25155U   26060.45259243  .00042348  00000+0  12073-2 0  9992
2 64894  97.4406  30.0525 0004752 169.8949 190.2391 15.35937930 64383
